ONEWEB-0012             
1 44057U 19010A   26204.12372694  .00000096  00000+0  21840-3 0  9991
2 44057  87.9077 221.6461 0001647  97.1273 263.0046 13.16594201356297
ONEWEB-0010             
1 44058U 19010B   26204.30107356 -.00000101  00000+0 -29711-3 0  9997
2 44058  87.9078 221.6070 0002362  96.6762 263.4638 13.16593935356369
ONEWEB-0008             
1 44059U 19010C   26204.09841102 -.00000029  00000+0 -10982-3 0  9997
2 44059  87.9076 221.6423 0002060  85.2211 274.9155 13.16593759356453
ONEWEB-0007             
1 44060U 19010D   26204.39022273 -.00000111  00000+0 -32820-3 0  9999
2 44060  87.8975 252.0068 0002058 104.7700 255.3658 13.15548107356134
ONEWEB-0006             
1 44061U 19010E   26204.39416183 -.00000159  00000+0 -45524-3 0  9994
2 44061  87.8984 251.9737 0002204  94.4608 265.6774 13.15546602356187
ONEWEB-0011             
1 44062U 19010F   26204.21036432  .00000008  00000+0 -11751-4 0  9999
2 44062  87.8990 252.0212 0002218  96.2610 263.8773 13.15547361356152
ONEWEB-0013             
1 45131U 20008A   26204.31235744  .00000690  00000+0  19656-2 0  9990
2 45131  87.8496  45.5302 0000795  87.6936 272.4282 13.09461852310793
ONEWEB-0017             
1 45132U 20008B   26204.49864840  .00000625  00000+0  17527-2 0  9998
2 45132  87.8818  29.0307 0001990  90.6225 269.5130 13.10376064312701
ONEWEB-0020             
1 45133U 20008C   26204.46808612 -.00000582  00000+0 -17028-2 0  9991
2 45133  87.8834  29.0371 0001762  88.9661 271.1668 13.10372952313092
ONEWEB-0021             
1 45134U 20008D   26204.48336290 -.00000004  00000+0 -48438-4 0  9992
2 45134  87.8823  29.0481 0001779  91.4261 268.7070 13.10375428313401
ONEWEB-0023             
1 45136U 20008F   26204.49440979  .00000529  00000+0  14786-2 0  9992
2 45136  87.8826  29.0299 0001713  83.8421 276.2902 13.10373857312832
ONEWEB-0024             
1 45137U 20008G   26204.46652030 -.00000607  00000+0 -17764-2 0  9991
2 45137  87.8828  29.0297 0001837  90.9973 269.1364 13.10372856312999
ONEWEB-0025             
1 45138U 20008H   26204.46624501 -.00000606  00000+0 -17711-2 0  9995
2 45138  87.8835  29.0198 0002040  77.6405 282.4951 13.10372625313329
ONEWEB-0026             
1 45139U 20008J   26204.01809903 -.00001276  00000+0 -36373-2 0  9997
2 45139  87.8887  13.9329 0001612 100.2893 259.8417 13.11384221315809
ONEWEB-0028             
1 45140U 20008K   26204.45101921  .00008005  00000+0  22496-1 0  9997
2 45140  87.8895  13.8535 0001370  88.6438 271.4847 13.11523869313373
ONEWEB-0032             
1 45141U 20008L   26204.50049319  .00000607  00000+0  17030-2 0  9995
2 45141  87.8823  29.0326 0001267  82.7215 277.4056 13.10373840313059
ONEWEB-0033             
1 45142U 20008M   26204.01673167 -.00000317  00000+0 -94411-3 0  9995
2 45142  87.8817  29.1350 0002308  92.9650 267.1742 13.10375095312909
ONEWEB-0035             
1 45143U 20008N   26204.49537367  .00000565  00000+0  15831-2 0  9990
2 45143  87.8820  29.0329 0001818  91.2501 268.8834 13.10378229312699
ONEWEB-0036             
1 45144U 20008P   26204.01491141 -.00000388  00000+0 -11466-2 0  9993
2 45144  87.8841  29.1474 0001608  85.6362 274.4949 13.10376867313051
ONEWEB-0038             
1 45145U 20008Q   26204.40984081 -.00000213  00000+0 -63601-3 0  9993
2 45145  87.8905  13.8690 0002510 134.5986 225.5348 13.11415296315077
ONEWEB-0039             
1 45146U 20008R   26204.47827380 -.00000240  00000+0 -72331-3 0  9999
2 45146  87.8825  29.0340 0001301  92.7991 267.3285 13.10375521312917
ONEWEB-0040             
1 45147U 20008S   26204.47147402 -.00000532  00000+0 -15595-2 0  9992
2 45147  87.8817  29.0457 0001728  79.2085 280.9237 13.10373785312610
ONEWEB-0043             
1 45149U 20008U   26204.01515999 -.00000363  00000+0 -10766-2 0  9991
2 45149  87.8828  29.1268 0001271  89.7093 270.4180 13.10374372312875
ONEWEB-0044             
1 45150U 20008V   26204.27296869  .00000622  00000+0  17468-2 0  9995
2 45150  87.8827  29.0773 0001654  87.1758 272.9558 13.10374778313205
ONEWEB-0045             
1 45151U 20008W   26204.40461736 -.00000051  00000+0 -17854-3 0  9996
2 45151  87.8896  13.8503 0001698  95.1099 265.0223 13.11414926315158
ONEWEB-0047             
1 45152U 20008X   26204.49511730  .00000567  00000+0  15880-2 0  9992
2 45152  87.8836  29.0317 0001922  92.7050 267.4298 13.10374484312951
ONEWEB-0048             
1 45153U 20008Y   26204.49016522  .00000362  00000+0  10003-2 0  9997
2 45153  87.8819  29.0510 0001741  93.5299 266.6027 13.10376476312562
ONEWEB-0049             
1 45154U 20008Z   26204.03526758  .00000583  00000+0  16331-2 0  9990
2 45154  87.8817  29.1307 0001719  74.8221 285.3097 13.10374586312721
ONEWEB-0051             
1 45155U 20008AA  26204.17402665  .00000059  00000+0  13113-3 0  9990
2 45155  87.8892  13.9015 0001822  92.1250 268.0086 13.11416430315806
ONEWEB-0052             
1 45156U 20008AB  26204.51405720  .00000486  00000+0  13568-2 0  9991
2 45156  87.8820  29.0228 0001593  83.0251 277.1057 13.10372245312694
